TIANMU-1 08             
1 57400U 23101B   26066.00237819  .00000346  00000+0  14775-4 0  9993
2 57400  97.2717 118.7901 0006380 134.2174 225.9592 15.29204229146020
STARLINK-32172          
1 61518U 24183K   26068.49396085  .00000877  00000+0  41759-4 0  9996
2 61518  53.1601 143.2666 0001125  87.2122 272.9008 15.30188090 79625
